MEAN_MOTION;ECCENTRICITY;INCLINATION;RA_OF_ASC_NODE;ARG_OF_PERICENTER;MEAN_ANOMALY;BSTAR;MEAN_MOTION_DOT;MEAN_MOTION_DDOT;TYPE
12.13796115;0.005116;82.9615;324.275;177.5649;238.5928;-4.0648E-5;6.0E-8;0;Amateur
12.13796134;0.0051191;82.9613;323.7333;175.513;203.1618;-7.343E-6;9.0E-8;0;Amateur
12.13796183;0.0051209;82.9617;323.4472;174.3979;308.1271;0.00035162;4.3E-7;0;Amateur
12.1379623;0.0051231;82.9616;323.1352;173.2105;255.1403;0.00034073;4.2E-7;0;Amateur
12.13796239;0.0051242;82.9615;322.9004;172.3263;311.7832;0.00027721;3.6E-7;0;Amateur
12.13796272;0.0051282;82.9613;322.3956;170.4174;343.6436;0.00016185;2.5E-7;0;Amateur
12.13796304;0.0051298;82.9612;322.0929;169.2726;216.9364;8.4517E-5;1.8E-7;0;Amateur
12.13796262;0.0051331;82.961;321.5461;167.2122;220.9225;-0.00012455;-2.0E-8;0;Amateur
12.13796289;0.0051365;82.9608;320.9497;164.9668;256.8463;-0.00020725;-1.0E-7;0;Amateur
12.13796277;0.005141;82.9606;320.4031;162.901;258.6346;-0.00023742;-1.3E-7;0;Amateur
12.13796267;0.0051448;82.9604;319.8565;160.8442;260.2325;-0.00017887;-7.0E-8;0;Amateur
12.13796267;0.0051463;82.9603;319.6219;159.9609;315.9961;-0.00012675;-2.0E-8;0;Amateur
12.13796258;0.0051487;82.9602;319.3094;158.7801;266.3161;-6.5925E-5;3.0E-8;0;Amateur
12.13796262;0.0051538;82.9599;318.7626;156.7193;269.8447;8.7058E-5;1.8E-7;0;Amateur
12.13796272;0.0051573;82.9597;318.2163;154.669;269.566;0.00023415;3.2E-7;0;Amateur
12.13796264;0.0051584;82.9597;318.0708;154.1231;339.8862;0.00027042;3.6E-7;0;Amateur
12.13796286;0.0051609;82.9595;317.716;152.7905;264.9466;0.00033485;4.2E-7;0;Amateur
12.13796286;0.0051612;82.9595;317.6708;152.6227;262.1346;0.00033011;4.2E-7;0;Amateur
12.13796306;0.0051647;82.959;317.169;150.7677;267.3322;1.3863E-5;1.1E-7;0;Amateur
12.1379631;0.0051649;82.9589;317.1239;150.5996;264.3906;1.7558E-5;1.2E-7;0;Amateur
12.1379634;0.0051673;82.9593;316.8421;149.5136;333.7814;0.000349;4.3E-7;0;Amateur
12.13796357;0.0051691;82.9592;316.6226;148.6905;269.3046;0.00033572;4.2E-7;0;Amateur
12.13796302;0.0051695;82.9587;316.53;148.3815;278.9004;1.2124E-5;1.1E-7;0;Amateur
12.13796402;0.0051752;82.959;315.8846;145.9437;342.6991;0.00017639;2.7E-7;0;Amateur
12.13796436;0.0051775;82.9589;315.5287;144.6119;275.742;8.926E-5;1.8E-7;0;Amateur
12.13796437;0.0051778;82.9589;315.484;144.4452;269.7122;6.4618E-5;1.6E-7;0;Amateur
12.13796458;0.0051812;82.9587;314.9357;142.4;283.2098;-7.311E-5;3.0E-8;0;Amateur
12.13796474;0.0051846;82.9585;314.3904;140.3636;273.9429;-0.00015952;-5.0E-8;0;Amateur
12.13796473;0.0051848;82.9585;314.3437;140.1911;283.29;-0.00016899;-6.0E-8;0;Amateur
12.13796482;0.0051863;82.9584;314.1092;139.3137;336.786;-0.00017435;-7.0E-8;0;Amateur
12.13796478;0.0051921;82.9581;313.2504;136.1092;284.5327;-0.00012606;-2.0E-8;0;Amateur
12.13796488;0.005195;82.9579;312.7502;134.2451;278.1986;-3.1975E-6;1.0E-7;0;Amateur
12.13796495;0.0051953;82.9579;312.7036;134.0723;287.2626;9.2507E-6;1.1E-7;0;Amateur
12.13796512;0.0051982;82.9577;312.2019;132.2037;292.8438;0.00015914;2.5E-7;0;Amateur
12.13796512;0.0051986;82.9577;312.1566;132.0359;290.6429;0.00016462;2.6E-7;0;Amateur
12.13796517;0.0051996;82.9576;311.9219;131.1646;345.7876;0.00023217;3.2E-7;0;Amateur
12.13796555;0.0052041;82.9572;310.9176;127.4262;2.782;0.00039062;4.7E-7;0;Amateur
12.13796614;0.0052065;82.9571;310.3709;125.3923;3.896;0.00040682;4.9E-7;0;Amateur
12.13796655;0.0052072;82.9571;310.2746;125.0343;44.5888;0.00042083;5.0E-7;0;Amateur
12.13796701;0.0052095;82.9569;309.7802;123.2031;352.3632;0.00035724;4.4E-7;0;Amateur
12.13796738;0.0052124;82.9567;309.2318;121.1661;5.9231;0.00021856;3.1E-7;0;Amateur
12.13796747;0.0052138;82.9567;308.9271;120.0338;253.5869;0.00011362;2.1E-7;0;Amateur
12.13796738;0.005215;82.9566;308.6858;119.1412;0.289;2.6305E-5;1.3E-7;0;Amateur
12.13796745;0.0052173;82.9565;308.1372;117.1098;15.1748;-0.00010766;0;0;Amateur
12.13796745;0.0052189;82.9564;307.7823;115.7949;299.5155;-0.00018401;-8.0E-8;0;Amateur
12.13796731;0.005219;82.9564;307.683;115.4283;3.7566;-0.00020494;-1.0E-7;0;Amateur
12.13796744;0.0052205;82.9563;307.1889;113.5998;308.3408;-0.00020546;-1.0E-7;0;Amateur
12.13796742;0.0052226;82.9562;306.4966;111.0418;18.0489;-9.0021E-5;1.0E-8;0;Amateur
12.13796746;0.0052241;82.9561;305.9063;108.8563;2.8668;5.0135E-5;1.5E-7;0;Amateur
12.13796745;0.0052251;82.9561;305.548;107.527;313.4382;0.00011423;2.1E-7;0;Amateur
12.13796728;0.005225;82.9561;305.3135;106.6583;6.4536;0.00015521;2.5E-7;0;Amateur
12.13796741;0.005226;82.956;304.812;104.803;9.1757;0.000274;3.6E-7;0;Amateur
12.13796761;0.0052272;82.9559;304.2597;102.7649;53.1882;0.00033627;4.2E-7;0;Amateur
12.13796781;0.0052278;82.9558;303.9586;101.6536;272.0684;0.00034822;4.3E-7;0;Amateur
12.13796793;0.0052284;82.9558;303.7181;100.7737;12.6093;0.00034349;4.3E-7;0;Amateur
12.13796814;0.005229;82.9558;303.1668;98.7418;48.3877;0.00024938;3.4E-7;0;Amateur
12.13796857;0.0052296;82.9558;302.8139;97.4428;316.7411;0.00017938;2.7E-7;0;Amateur
12.1379686;0.0052297;82.9558;302.6238;96.7408;18.49;0.00014129;2.4E-7;0;Amateur
12.13796894;0.00523;82.9558;302.3116;95.5857;325.0683;7.3107E-5;1.7E-7;0;Amateur
12.13796909;0.0052302;82.9558;302.1676;95.063;22.94;3.9191E-5;1.4E-7;0;Amateur
12.13796932;0.0052303;82.9558;301.7199;93.4105;320.5008;-7.8788E-5;2.0E-8;0;Amateur
12.13796921;0.0052302;82.9558;301.4842;92.5443;22.5312;-0.00013947;-3.0E-8;0;Amateur
12.13796923;0.0052301;82.9558;300.937;90.5151;25.2932;-0.00020551;-1.0E-7;0;Amateur
12.13796913;0.0052298;82.9558;300.3901;88.498;26.8505;-0.00022091;-1.1E-7;0;Amateur
12.13796905;0.0052298;82.9558;300.2615;88.022;322.8742;-0.00022407;-1.2E-7;0;Amateur
12.13796898;0.0052296;82.9559;299.8435;86.4743;25.7599;-0.00015312;-5.0E-8;0;Amateur
12.13796892;0.005229;82.9558;299.2963;84.4538;28.7266;-2.0106E-5;8.0E-8;0;Amateur
12.13796919;0.0052288;82.9558;298.9383;83.1315;337.6952;0.00011051;2.1E-7;0;Amateur
12.13796931;0.0052284;82.9558;298.749;82.432;33.6753;0.00019635;2.9E-7;0;Amateur
12.13796936;0.0052273;82.9558;298.1971;80.3941;74.1833;0.00032276;4.1E-7;0;Amateur
12.13796982;0.0052269;82.9558;297.8427;79.0841;354.3428;0.00041376;5.0E-7;0;Amateur
12.13796989;0.0052265;82.9559;297.7047;78.5749;4.5665;0.00045408;5.4E-7;0;Amateur
12.13797016;0.0052265;82.9559;297.6091;78.2202;40.0519;0.00047814;5.6E-7;0;Amateur
12.13797053;0.0052253;82.9559;297.2493;76.8979;3.011;0.00049062;5.7E-7;0;Amateur
12.13797092;0.005225;82.9559;297.0628;76.2106;36.8541;0.00052432;6.0E-7;0;Amateur
12.13797124;0.0052239;82.9559;296.751;75.0664;339.9929;0.00047025;5.5E-7;0;Amateur
12.13797143;0.0052237;82.956;296.5614;74.3634;38.1227;0.00045636;5.4E-7;0;Amateur
12.13797153;0.0052236;82.956;296.5155;74.1928;41.0309;0.00044465;5.3E-7;0;Amateur
12.13797185;0.0052219;82.956;295.9636;72.1571;81.9485;0.000257;3.5E-7;0;Amateur
12.13797183;0.0052206;82.9561;295.422;70.1529;41.8291;2.1886E-5;1.2E-7;0;Amateur
12.13797186;0.0052205;82.9561;295.3755;69.9802;49.2208;-3.9283E-6;1.0E-7;0;Amateur
12.13797161;0.005218;82.9562;294.8697;68.1159;85.057;-0.00021996;-1.1E-7;0;Amateur
12.1379714;0.0052152;82.9563;294.0678;65.146;302.0976;-0.00035107;-2.4E-7;0;Amateur
12.13797137;0.0052147;82.9563;293.9689;64.7806;3.4006;-0.00037007;-2.6E-7;0;Amateur
12.13797094;0.0052114;82.9565;293.1872;61.8839;60.3054;-0.00028379;-1.7E-7;0;Amateur
12.13797109;0.0052095;82.9565;292.8759;60.7299;0.0429;-0.00017642;-7.0E-8;0;Amateur
12.13797111;0.0052085;82.9566;292.6403;59.8554;61.5674;-8.6205E-5;2.0E-8;0;Amateur
12.1379711;0.0052072;82.9567;292.3287;58.7012;4.0199;1.784E-5;1.2E-7;0;Amateur
12.13797117;0.0052059;82.9567;292.0944;57.8308;55.61;0.00012038;2.1E-7;0;Amateur
12.1379713;0.0052024;82.9569;291.593;55.9794;57.6179;0.00029525;3.8E-7;0;Amateur
12.13797136;0.0052021;82.9569;291.5471;55.8088;60.0459;0.00030426;3.9E-7;0;Amateur
12.13797161;0.0052006;82.9569;291.235;54.6507;6.9525;0.000391;4.7E-7;0;Amateur
12.13797202;0.0051984;82.957;290.6878;52.6123;10.9161;0.00047286;5.5E-7;0;Amateur
12.13797241;0.0051954;82.9571;290.1875;50.7513;4.7886;0.00046228;5.4E-7;0;Amateur
12.13797257;0.0051932;82.9572;289.9065;49.7118;65.9838;0.00040736;4.9E-7;0;Amateur
12.13797293;0.005191;82.9573;289.3546;47.6568;107.0661;0.00024416;3.3E-7;0;Amateur
12.13797323;0.0051885;82.9574;288.8131;45.6444;67.2518;4.9995E-5;1.5E-7;0;Amateur
12.13797332;0.0051882;82.9574;288.7667;45.4718;73.9764;2.9846E-5;1.3E-7;0;Amateur
12.13797323;0.0051845;82.9575;288.2196;43.4347;77.5499;-0.00020117;-1.0E-7;0;Amateur
12.13797305;0.0051828;82.9576;287.9065;42.2619;32.3618;-0.00032148;-2.1E-7;0;Amateur
12.13797294;0.0051809;82.9577;287.7194;41.5733;71.0169;-0.00035723;-2.5E-7;0;Amateur
12.13797274;0.0051782;82.9577;287.361;40.2424;22.5912;-0.00042938;-3.1E-7;0;Amateur
12.13797243;0.0051761;82.9578;287.126;39.3612;80.6033;-0.00045431;-3.4E-7;0;Amateur
12.13797213;0.0051744;82.9579;286.8144;38.1997;23.3717;-0.00045623;-3.4E-7;0;Amateur
12.13797116;0.0051691;82.958;286.1769;35.8121;21.937;-0.00038039;-2.7E-7;0;Amateur
12.13797123;0.0051684;82.9581;286.033;35.2701;79.879;-0.00032435;-2.1E-7;0;Amateur
12.13797133;0.0051645;82.9582;285.4861;33.2231;83.0525;-6.5362E-5;3.0E-8;0;Amateur
12.13797132;0.0051607;82.9584;284.9398;31.1844;81.1644;0.00017613;2.7E-7;0;Amateur
12.13797186;0.0051575;82.9585;284.3873;29.1121;128.2373;0.00041144;4.9E-7;0;Amateur
12.13797249;0.0051529;82.9586;283.8457;27.0818;90.3136;0.0005513;6.3E-7;0;Amateur
12.1379725;0.0051527;82.9586;283.7607;26.7638;41.3594;0.00054434;6.2E-7;0;Amateur
12.13797305;0.0051498;82.9587;283.2942;25.0115;130.4743;0.00055435;6.3E-7;0;Amateur
12.13797305;0.0051462;82.9589;282.7531;22.9777;88.7334;0.00037079;4.5E-7;0;Amateur
12.13797316;0.0051454;82.9589;282.6221;22.4854;44.2556;0.0003281;4.1E-7;0;Amateur
12.13797321;0.0051415;82.959;282.1597;20.7415;99.9555;0.00010494;2.0E-7;0;Amateur
12.13797341;0.005139;82.9591;281.8477;19.5654;46.551;-1.9857E-5;8.0E-8;0;Amateur
12.13797322;0.0051332;82.9592;281.0665;16.6283;103.0735;-0.0003631;-2.5E-7;0;Amateur
12.13797314;0.0051289;82.9593;280.5201;14.5667;102.5158;-0.00046529;-3.5E-7;0;Amateur
